start=new Date('2021-11-23T00:00:00.000Z').valueOf();
sats=[{"EPHEMERIS_TYPE":"0","COUNTRY_CODE":"US","OBJECT_ID":"2021-017BB","TIME_SYSTEM":"UTC","CENTER_NAME":"EARTH","ECCENTRICITY":"0.00012790","REF_FRAME":"TEME","MEAN_ANOMALY":"297.4190","MEAN_MOTION_DOT":"-0.00000996","GP_ID":"190270304","TLE_LINE2":"2 47771  53.0576  45.7840 0001279  62.6929 297.4190 15.06392819 40836","LAUNCH_DATE":"2021-03-04","BSTAR":"-0.00004797700000","DECAY_DATE":null,"EPOCH":"2021-11-22T15:45:31.568832","INCLINATION":"53.0576","MEAN_MOTION_DDOT":"0.0000000000000","APOAPSIS":"548.121","MEAN_MOTION":"15.06392819","CLASSIFICATION_TYPE":"U","NORAD_CAT_ID":"47771","SITE":"AFETR","MEAN_ELEMENT_THEORY":"SGP4","PERIAPSIS":"546.350","ELEMENT_SET_NO":"999","SEMIMAJOR_AXIS":"6925.371","RA_OF_ASC_NODE":"45.7840","ARG_OF_PERICENTER":"62.6929","OBJECT_NAME":"STARLINK-2194","RCS_SIZE":"LARGE","PERIOD":"95.593","TLE_LINE1":"1 47771U 21017BB  21326.65661538 -.00000996  00000-0 -47977-4 0  9995","REV_AT_EPOCH":"4083","OBJECT_TYPE":"PAYLOAD","FILE":"3221488"},{"PERIOD":"95.592","REV_AT_EPOCH":"4061","TLE_LINE1":"1 47772U 21017BC  21326.64601711  .00002116  00000-0  16091-3 0  9998","OBJECT_TYPE":"PAYLOAD","FILE":"3221373","ARG_OF_PERICENTER":"85.2631","OBJECT_NAME":"STARLINK-2195","RCS_SIZE":"LARGE","SEMIMAJOR_AXIS":"6925.355","RA_OF_ASC_NODE":"60.8296","CLASSIFICATION_TYPE":"U","NORAD_CAT_ID":"47772","SITE":"AFETR","ELEMENT_SET_NO":"999","PERIAPSIS":"546.276","MEAN_ELEMENT_THEORY":"SGP4","EPOCH":"2021-11-22T15:30:15.878304","INCLINATION":"53.0560","APOAPSIS":"548.164","MEAN_MOTION_DDOT":"0.0000000000000","MEAN_MOTION":"15.06397870","TLE_LINE2":"2 47772  53.0560  60.8296 0001363  85.2631 274.8513 15.06397870 40614","DECAY_DATE":null,"LAUNCH_DATE":"2021-03-04","BSTAR":"0.00016091000000","ECCENTRICITY":"0.00013630","REF_FRAME":"TEME","MEAN_ANOMALY":"274.8513","MEAN_MOTION_DOT":"0.00002116","GP_ID":"190268263","COUNTRY_CODE":"US","EPHEMERIS_TYPE":"0","OBJECT_ID":"2021-017BC","TIME_SYSTEM":"UTC","CENTER_NAME":"EARTH"},{"EPHEMERIS_TYPE":"0","COUNTRY_CODE":"US","OBJECT_ID":"2021-017BD","TIME_SYSTEM":"UTC","CENTER_NAME":"EARTH","ECCENTRICITY":"0.00012860","MEAN_ANOMALY":"279.7233","REF_FRAME":"TEME","GP_ID":"190270603","MEAN_MOTION_DOT":"-0.00000303","TLE_LINE2":"2 47773  53.0562  60.8521 0001286  80.3901 279.7233 15.06396433 40615","BSTAR":"-0.00000142370000","LAUNCH_DATE":"2021-03-04","DECAY_DATE":null,"EPOCH":"2021-11-22T15:24:57.039840","INCLINATION":"53.0562","MEAN_MOTION_DDOT":"0.0000000000000","APOAPSIS":"548.115","MEAN_MOTION":"15.06396433","CLASSIFICATION_TYPE":"U","NORAD_CAT_ID":"47773","SITE":"AFETR","MEAN_ELEMENT_THEORY":"SGP4","ELEMENT_SET_NO":"999","PERIAPSIS":"546.334","RA_OF_ASC_NODE":"60.8521","SEMIMAJOR_AXIS":"6925.359","OBJECT_NAME":"STARLINK-2196","ARG_OF_PERICENTER":"80.3901","RCS_SIZE":"LARGE","PERIOD":"95.592","TLE_LINE1":"1 47773U 21017BD  21326.64232685 -.00000303  00000-0 -14237-5 0  9999","REV_AT_EPOCH":"4061","OBJECT_TYPE":"PAYLOAD","FILE":"3221488"},{"EPOCH":"2021-11-22T08:57:29.162016","INCLINATION":"53.0562","APOAPSIS":"548.098","MEAN_MOTION_DDOT":"0.0000000000000","MEAN_MOTION":"15.06395328","TLE_LINE2":"2 47774  53.0562  62.0563 0001257  75.4622 284.6506 15.06395328 41216","DECAY_DATE":null,"LAUNCH_DATE":"2021-03-04","BSTAR":"0.00000826830000","ECCENTRICITY":"0.00012570","REF_FRAME":"TEME","MEAN_ANOMALY":"284.6506","GP_ID":"190265361","MEAN_MOTION_DOT":"-0.00000158","COUNTRY_CODE":"US","EPHEMERIS_TYPE":"0","OBJECT_ID":"2021-017BE","TIME_SYSTEM":"UTC","CENTER_NAME":"EARTH","PERIOD":"95.592","REV_AT_EPOCH":"4121","TLE_LINE1":"1 47774U 21017BE  21326.37325419 -.00000158  00000-0  82683-5 0  9995","OBJECT_TYPE":"PAYLOAD","FILE":"3221278","ARG_OF_PERICENTER":"75.4622","OBJECT_NAME":"STARLINK-2197","RCS_SIZE":"LARGE","RA_OF_ASC_NODE":"62.0563","SEMIMAJOR_AXIS":"6925.363","CLASSIFICATION_TYPE":"U","NORAD_CAT_ID":"47774","SITE":"AFETR","PERIAPSIS":"546.357","ELEMENT_SET_NO":"999","MEAN_ELEMENT_THEORY":"SGP4"},{"SEMIMAJOR_AXIS":"6925.342","RA_OF_ASC_NODE":"62.0273","NORAD_CAT_ID":"47775","CLASSIFICATION_TYPE":"U","PERIAPSIS":"546.318","ELEMENT_SET_NO":"999","MEAN_ELEMENT_THEORY":"SGP4","SITE":"AFETR","TLE_LINE1":"1 47775U 21017BF  21326.38430684  .00001452  00000-0  11634-3 0  9991","REV_AT_EPOCH":"4126","PERIOD":"95.592","FILE":"3221278","OBJECT_TYPE":"PAYLOAD","RCS_SIZE":"LARGE","ARG_OF_PERICENTER":"88.2763","OBJECT_NAME":"STARLINK-2198","ECCENTRICITY":"0.00012830","GP_ID":"190263616","MEAN_MOTION_DOT":"0.00001452","REF_FRAME":"TEME","MEAN_ANOMALY":"271.8373","OBJECT_ID":"2021-017BF","COUNTRY_CODE":"US","EPHEMERIS_TYPE":"0","CENTER_NAME":"EARTH","TIME_SYSTEM":"UTC","INCLINATION":"53.0548","EPOCH":"2021-11-22T09:13:24.110976","MEAN_MOTION":"15.06402283","APOAPSIS":"548.095","MEAN_MOTION_DDOT":"0.0000000000000","DECAY_DATE":null,"BSTAR":"0.00011634000000","LAUNCH_DATE":"2021-03-04","TLE_LINE2":"2 47775  53.0548  62.0273 0001283  88.2763 271.8373 15.06402283 41260"},{"ECCENTRICITY":"0.00012570","REF_FRAME":"TEME","MEAN_ANOMALY":"275.2959","GP_ID":"190270625","MEAN_MOTION_DOT":"-0.00005070","EPHEMERIS_TYPE":"0","COUNTRY_CODE":"US","OBJECT_ID":"2021-017BG","TIME_SYSTEM":"UTC","CENTER_NAME":"EARTH","EPOCH":"2021-11-22T14:38:30.003936","INCLINATION":"53.0562","MEAN_MOTION_DDOT":"0.0000000000000","APOAPSIS":"548.026","MEAN_MOTION":"15.06418831","TLE_LINE2":"2 47776  53.0562  51.0086 0001257  84.8174 275.2959 15.06418831 40753","LAUNCH_DATE":"2021-03-04","BSTAR":"-0.00032158000000","DECAY_DATE":null,"SEMIMAJOR_AXIS":"6925.291","RA_OF_ASC_NODE":"51.0086","CLASSIFICATION_TYPE":"U","NORAD_CAT_ID":"47776","SITE":"AFETR","MEAN_ELEMENT_THEORY":"SGP4","PERIAPSIS":"546.285","ELEMENT_SET_NO":"999","PERIOD":"95.591","REV_AT_EPOCH":"4075","TLE_LINE1":"1 47776U 21017BG  21326.61006949 -.00005070  00000-0 -32158-3 0  9997","OBJECT_TYPE":"PAYLOAD","FILE":"3221489","OBJECT_NAME":"STARLINK-2209","ARG_OF_PERICENTER":"84.8174","RCS_SIZE":"LARGE"},{"LAUNCH_DATE":"2021-03-04","BSTAR":"0.00001868100000","DECAY_DATE":null,"TLE_LINE2":"2 47777  53.0558  52.1882 0001057  83.7322 276.3787 15.06398729 41368","INCLINATION":"53.0558","EPOCH":"2021-11-22T08:21:39.412512","MEAN_MOTION":"15.06398729","MEAN_MOTION_DDOT":"0.0000000000000","APOAPSIS":"547.949","OBJECT_ID":"2021-017BH","EPHEMERIS_TYPE":"0","COUNTRY_CODE":"US","CENTER_NAME":"EARTH","TIME_SYSTEM":"UTC","ECCENTRICITY":"0.00010570","GP_ID":"190264618","MEAN_MOTION_DOT":"-0.00000003","MEAN_ANOMALY":"276.3787","REF_FRAME":"TEME","RCS_SIZE":"LARGE","ARG_OF_PERICENTER":"83.7322","OBJECT_NAME":"STARLINK-2210","REV_AT_EPOCH":"4136","TLE_LINE1":"1 47777U 21017BH  21326.34837283 -.00000003  00000-0  18681-4 0  9997","PERIOD":"95.592","FILE":"3221278","OBJECT_TYPE":"PAYLOAD","NORAD_CAT_ID":"47777","CLASSIFICATION_TYPE":"U","MEAN_ELEMENT_THEORY":"SGP4","ELEMENT_SET_NO":"999","PERIAPSIS":"546.485","SITE":"AFETR","SEMIMAJOR_AXIS":"6925.352","RA_OF_ASC_NODE":"52.1882"},{"ARG_OF_PERICENTER":"85.9472","OBJECT_NAME":"STARLINK-2211","RCS_SIZE":"LARGE","PERIOD":"95.592","REV_AT_EPOCH":"4074","TLE_LINE1":"1 47778U 21017BJ  21326.51423660  .00001797  00000-0  13950-3 0  9990","OBJECT_TYPE":"PAYLOAD","FILE":"3221489","CLASSIFICATION_TYPE":"U","NORAD_CAT_ID":"47778","SITE":"AFETR","PERIAPSIS":"546.262","ELEMENT_SET_NO":"999","MEAN_ELEMENT_THEORY":"SGP4","SEMIMAJOR_AXIS":"6925.353","RA_OF_ASC_NODE":"51.5503","TLE_LINE2":"2 47778  53.0310  51.5503 0001381  85.9472 274.1674 15.06398566 40749","DECAY_DATE":null,"LAUNCH_DATE":"2021-03-04","BSTAR":"0.00013950000000","EPOCH":"2021-11-22T12:20:30.042240","INCLINATION":"53.0310","APOAPSIS":"548.174","MEAN_MOTION_DDOT":"0.0000000000000","MEAN_MOTION":"15.06398566","COUNTRY_CODE":"US","EPHEMERIS_TYPE":"0","OBJECT_ID":"2021-017BJ","TIME_SYSTEM":"UTC","CENTER_NAME":"EARTH","ECCENTRICITY":"0.00013810","REF_FRAME":"TEME","MEAN_ANOMALY":"274.1674","MEAN_MOTION_DOT":"0.00001797","GP_ID":"190270311"},{"ECCENTRICITY":"0.00008230","GP_ID":"190270331","MEAN_MOTION_DOT":"0.00046326","REF_FRAME":"TEME","MEAN_ANOMALY":"296.8650","OBJECT_ID":"2021-017BK","EPHEMERIS_TYPE":"0","COUNTRY_CODE":"US","CENTER_NAME":"EARTH","TIME_SYSTEM":"UTC","INCLINATION":"53.0589","EPOCH":"2021-11-22T18:52:20.968320","MEAN_MOTION":"15.08888916","MEAN_MOTION_DDOT":"0.0000000000000","APOAPSIS":"540.165","BSTAR":"0.00290570000000","LAUNCH_DATE":"2021-03-04","DECAY_DATE":null,"TLE_LINE2":"2 47779  53.0589  50.1190 0000823  63.2424 296.8650 15.08888916 40785","SEMIMAJOR_AXIS":"6917.731","RA_OF_ASC_NODE":"50.1190","NORAD_CAT_ID":"47779","CLASSIFICATION_TYPE":"U","MEAN_ELEMENT_THEORY":"SGP4","ELEMENT_SET_NO":"999","PERIAPSIS":"539.027","SITE":"AFETR","TLE_LINE1":"1 47779U 21017BK  21326.78635380  .00046326  00000-0  29057-2 0  9995","REV_AT_EPOCH":"4078","PERIOD":"95.434","FILE":"3221491","OBJECT_TYPE":"PAYLOAD","RCS_SIZE":"LARGE","ARG_OF_PERICENTER":"63.2424","OBJECT_NAME":"STARLINK-2212"},{"OBJECT_ID":"2021-017BL","EPHEMERIS_TYPE":"0","COUNTRY_CODE":"US","CENTER_NAME":"EARTH","TIME_SYSTEM":"UTC","ECCENTRICITY":"0.00012930","GP_ID":"190270641","MEAN_MOTION_DOT":"0.00000669","REF_FRAME":"TEME","MEAN_ANOMALY":"286.4276","LAUNCH_DATE":"2021-03-04","BSTAR":"0.00006380800000","DECAY_DATE":null,"TLE_LINE2":"2 47780  53.0565  50.7597 0001293  73.6855 286.4276 15.06399199 40779","INCLINATION":"53.0565","EPOCH":"2021-11-22T15:56:45.047328","MEAN_MOTION":"15.06399199","MEAN_MOTION_DDOT":"0.0000000000000","APOAPSIS":"548.111","NORAD_CAT_ID":"47780","CLASSIFICATION_TYPE":"U","MEAN_ELEMENT_THEORY":"SGP4","PERIAPSIS":"546.321","ELEMENT_SET_NO":"999","SITE":"AFETR","SEMIMAJOR_AXIS":"6925.351","RA_OF_ASC_NODE":"50.7597","RCS_SIZE":"LARGE","OBJECT_NAME":"STARLINK-2213","ARG_OF_PERICENTER":"73.6855","TLE_LINE1":"1 47780U 21017BL  21326.66441027  .00000669  00000-0  63808-4 0  9991","REV_AT_EPOCH":"4077","PERIOD":"95.592","FILE":"3221491","OBJECT_TYPE":"PAYLOAD"}];
